{"fetched_at":"2026-07-22T07:09:45.765Z","source":"https://celestrak.org/NORAD/elements/gp.php?NAME=HAWK&FORMAT=JSON","constellation":"hawkeye-360","records":[{"OBJECT_NAME":"HAWK-12A","OBJECT_ID":"2025-138C","EPOCH":"2026-07-21T07:29:35.789856","CLASSIFICATION_TYPE":"U","MEAN_MOTION":15.18432886,"ECCENTRICITY":0.00145326,"INCLINATION":97.4421,"RA_OF_ASC_NODE":204.533,"ARG_OF_PERICENTER":26.7224,"MEAN_ANOMALY":333.4756,"EPHEMERIS_TYPE":0,"NORAD_CAT_ID":64623,"ELEMENT_SET_NO":999,"REV_AT_EPOCH":5904,"BSTAR":0.00014850307,"MEAN_MOTION_DOT":0.00002996,"MEAN_MOTION_DDOT":0},{"OBJECT_NAME":"HAWK-13A","OBJECT_ID":"2026-004AF","EPOCH":"2026-07-21T10:38:13.344864","CLASSIFICATION_TYPE":"U","MEAN_MOTION":15.19390028,"ECCENTRICITY":0.00047623,"INCLINATION":97.4453,"RA_OF_ASC_NODE":200.8297,"ARG_OF_PERICENTER":194.0056,"MEAN_ANOMALY":166.1047,"EPHEMERIS_TYPE":0,"NORAD_CAT_ID":67392,"ELEMENT_SET_NO":999,"REV_AT_EPOCH":2896,"BSTAR":0.00015085851,"MEAN_MOTION_DOT":0.00003124,"MEAN_MOTION_DDOT":0},{"OBJECT_NAME":"HAWK-13C","OBJECT_ID":"2026-004AG","EPOCH":"2026-07-21T10:38:01.512384","CLASSIFICATION_TYPE":"U","MEAN_MOTION":15.19386474,"ECCENTRICITY":0.00045863,"INCLINATION":97.46,"RA_OF_ASC_NODE":201.2658,"ARG_OF_PERICENTER":197.014,"MEAN_ANOMALY":163.0941,"EPHEMERIS_TYPE":0,"NORAD_CAT_ID":67393,"ELEMENT_SET_NO":999,"REV_AT_EPOCH":2896,"BSTAR":0.0001508077,"MEAN_MOTION_DOT":0.00003123,"MEAN_MOTION_DDOT":0},{"OBJECT_NAME":"HAWK-13B","OBJECT_ID":"2026-004AK","EPOCH":"2026-07-21T10:37:53.125536","CLASSIFICATION_TYPE":"U","MEAN_MOTION":15.19388708,"ECCENTRICITY":0.00058532,"INCLINATION":97.454,"RA_OF_ASC_NODE":201.0839,"ARG_OF_PERICENTER":199.031,"MEAN_ANOMALY":161.0707,"EPHEMERIS_TYPE":0,"NORAD_CAT_ID":67396,"ELEMENT_SET_NO":999,"REV_AT_EPOCH":2896,"BSTAR":0.00014992772,"MEAN_MOTION_DOT":0.00003105,"MEAN_MOTION_DDOT":0},{"OBJECT_NAME":"HAWK-14B","OBJECT_ID":"2026-067W","EPOCH":"2026-07-21T14:47:53.793312","CLASSIFICATION_TYPE":"U","MEAN_MOTION":15.18464771,"ECCENTRICITY":0.00008701,"INCLINATION":97.4565,"RA_OF_ASC_NODE":160.5796,"ARG_OF_PERICENTER":326.292,"MEAN_ANOMALY":33.8259,"EPHEMERIS_TYPE":0,"NORAD_CAT_ID":68436,"ELEMENT_SET_NO":999,"REV_AT_EPOCH":1716,"BSTAR":0.00017787131,"MEAN_MOTION_DOT":0.00003597,"MEAN_MOTION_DDOT":0},{"OBJECT_NAME":"HAWK-14C","OBJECT_ID":"2026-067AB","EPOCH":"2026-07-20T19:49:20.021088","CLASSIFICATION_TYPE":"U","MEAN_MOTION":15.18456351,"ECCENTRICITY":0.00020038,"INCLINATION":97.4502,"RA_OF_ASC_NODE":159.6754,"ARG_OF_PERICENTER":9.3735,"MEAN_ANOMALY":350.7536,"EPHEMERIS_TYPE":0,"NORAD_CAT_ID":68441,"ELEMENT_SET_NO":999,"REV_AT_EPOCH":1704,"BSTAR":0.00014846399,"MEAN_MOTION_DOT":0.00002991,"MEAN_MOTION_DDOT":0},{"OBJECT_NAME":"HAWK-14A","OBJECT_ID":"2026-067AJ","EPOCH":"2026-07-21T14:48:12.321792","CLASSIFICATION_TYPE":"U","MEAN_MOTION":15.18466281,"ECCENTRICITY":0.00025775,"INCLINATION":97.4627,"RA_OF_ASC_NODE":160.7112,"ARG_OF_PERICENTER":353.7604,"MEAN_ANOMALY":6.3598,"EPHEMERIS_TYPE":0,"NORAD_CAT_ID":68448,"ELEMENT_SET_NO":999,"REV_AT_EPOCH":1716,"BSTAR":0.0001784649,"MEAN_MOTION_DOT":0.0000361,"MEAN_MOTION_DDOT":0}]}
