{"epoch":1784710044,"count":18256,"objects":[{"id":"64623","name":"HAWK-12A","type":"PAYLOAD","l1":"1 64623U 25138C   26202.31221979  .00002996  00000-0  14850-3 0  9993","l2":"2 64623  97.4421 204.5330 0014533  26.7224 333.4756 15.18432886 59041"},{"id":"67392","name":"HAWK-13A","type":"PAYLOAD","l1":"1 67392U 26004AF  26202.44321001  .00003124  00000-0  15086-3 0  9999","l2":"2 67392  97.4453 200.8297 0004762 194.0056 166.1047 15.19390028 28961"},{"id":"67393","name":"HAWK-13C","type":"PAYLOAD","l1":"1 67393U 26004AG  26202.44307306  .00003123  00000-0  15081-3 0  9996","l2":"2 67393  97.4600 201.2658 0004586 197.0140 163.0941 15.19386474 28962"},{"id":"67396","name":"HAWK-13B","type":"PAYLOAD","l1":"1 67396U 26004AK  26202.44297599  .00003105  00000-0  14993-3 0  9992","l2":"2 67396  97.4540 201.0839 0005853 199.0310 161.0707 15.19388708 28966"},{"id":"68436","name":"HAWK-14B","type":"PAYLOAD","l1":"1 68436U 26067W   26202.61659483  .00003597  00000-0  17787-3 0  9999","l2":"2 68436  97.4565 160.5796 0000870 326.2920  33.8259 15.18464771 17167"},{"id":"68441","name":"HAWK-14C","type":"PAYLOAD","l1":"1 68441U 26067AB  26201.82592617  .00002991  00000-0  14846-3 0  9992","l2":"2 68441  97.4502 159.6754 0002004   9.3735 350.7536 15.18456351 17042"},{"id":"68448","name":"HAWK-14A","type":"PAYLOAD","l1":"1 68448U 26067AJ  26202.61680928  .00003610  00000-0  17846-3 0  9992","l2":"2 68448  97.4627 160.7112 0002578 353.7604   6.3598 15.18466281 17163"}]}